{
    "links": {
        "self": "http://www.neowsapp.com/rest/v1/neo/3555911?api_key=iIulBulltgU6a56xZRHN4H3l9WmuAYTsLGpBGhQ2"
    },
    "id": "3555911",
    "neo_reference_id": "3555911",
    "name": "(2011 BF40)",
    "designation": "2011 BF40",
    "nasa_jpl_url": "http://ssd.jpl.nasa.gov/sbdb.cgi?sstr=3555911",
    "absolute_magnitude_h": 24.8,
    "estimated_diameter": {
        "kilometers": {
            "estimated_diameter_min": 0.0291443905,
            "estimated_diameter_max": 0.0651688382
        },
        "meters": {
            "estimated_diameter_min": 29.1443904535,
            "estimated_diameter_max": 65.1688382168
        },
        "miles": {
            "estimated_diameter_min": 0.018109479,
            "estimated_diameter_max": 0.0404940262
        },
        "feet": {
            "estimated_diameter_min": 95.6180819754,
            "estimated_diameter_max": 213.8085311752
        }
    },
    "is_potentially_hazardous_asteroid": false,
    "close_approach_data": [
        {
            "close_approach_date": "2011-02-09",
            "close_approach_date_full": "2011-Feb-09 08:56",
            "epoch_date_close_approach": 1297241760000,
            "relative_velocity": {
                "kilometers_per_second": "18.7314730054",
                "kilometers_per_hour": "67433.302819354",
                "miles_per_hour": "41900.4319657258"
            },
            "miss_distance": {
                "astronomical": "0.0460355356",
                "lunar": "17.9078233484",
                "kilometers": "6886818.070069172",
                "miles": "4279270.3163396936"
            },
            "orbiting_body": "Earth"
        }
    ],
    "orbital_data": {
        "orbit_id": "8",
        "orbit_determination_date": "2017-04-06 08:54:45",
        "first_observation_date": "2011-01-30",
        "last_observation_date": "2011-02-03",
        "data_arc_in_days": 4,
        "observations_used": 25,
        "orbit_uncertainty": "9",
        "minimum_orbit_intersection": ".0352612",
        "jupiter_tisserand_invariant": "2.858",
        "epoch_osculation": "2455593.5",
        "eccentricity": ".7271620681371305",
        "semi_major_axis": "2.805008221341861",
        "inclination": "5.51660814473904",
        "ascending_node_longitude": "301.0032130128491",
        "orbital_period": "1715.930266416332",
        "perihelion_distance": ".7653126419692594",
        "perihelion_argument": "264.3385211692232",
        "aphelion_distance": "4.844703800714462",
        "perihelion_time": "2455641.465388926698",
        "mean_anomaly": "349.9369220582174",
        "mean_motion": ".2097987354415334",
        "equinox": "J2000",
        "orbit_class": {
            "orbit_class_type": "APO",
            "orbit_class_description": "Near-Earth asteroid orbits which cross the Earth’s orbit similar to that of 1862 Apollo",
            "orbit_class_range": "a (semi-major axis) > 1.0 AU; q (perihelion) < 1.017 AU"
        }
    },
    "is_sentry_object": false
}